GLOBALSTAR M044         
1 25678U 99019C   24281.47856738  .00000031  00000+0  16006-2 0  9999
2 25678  51.9995 337.8681 0006100 271.7537 101.0207 11.90242195141239
GLOBALSTAR M042         
1 25679U 99019D   24281.40999465 -.00000019  00000+0  68705-3 0  9999
2 25679  52.0030  44.5407 0003560 130.9399 269.8930 12.22069664154356
GLOBALSTAR M025         
1 25770U 99031A   24281.58333171 -.00000059  00000+0  26938-3 0  9996
2 25770  51.9855  24.4432 0002020  91.0255 281.9379 11.22553894453349
GLOBALSTAR M049         
1 25771U 99031B   24281.60099652  .00000001  00000+0  22984-2 0  9995
2 25771  51.9895  46.4692 0002481 320.3195  39.7420 11.12110537 89329
GLOBALSTAR M047         
1 25772U 99031C   24281.50079815 -.00000067  00000+0  70412-4 0  9998
2 25772  51.9835  67.8074 0016369 185.7528 174.3092 11.31923638442495
GLOBALSTAR M052         
1 25773U 99031D   24281.36822667 -.00000061  00000+0  17881-3 0  9998
2 25773  51.9843 159.2340 0003265  98.6509  72.8905 11.15054562450306
